OBJECT_NAME,OBJECT_ID,EPOCH,MEAN_MOTION,ECCENTRICITY,INCLINATION,RA_OF_ASC_NODE,ARG_OF_PERICENTER,MEAN_ANOMALY,EPHEMERIS_TYPE,CLASSIFICATION_TYPE,NORAD_CAT_ID,ELEMENT_SET_NO,REV_AT_EPOCH,BSTAR,MEAN_MOTION_DOT,MEAN_MOTION_DDOT
BEIDOU-3 M24,2019-061A,2026-03-01T07:32:39.827040,1.86228845,.0008651,54.3998,186.3652,22.0339,337.9537,0,U,44542,999,4378,0,-.31E-6,0
BEIDOU-3 M23,2019-061B,2026-03-01T02:36:29.113056,1.86227192,.00051022,54.3976,186.3407,14.1129,120.2476,0,U,44543,999,4378,0,-.31E-6,0
BEIDOU-3 M22,2019-078A,2026-02-28T01:54:59.619744,1.86231871,.00072213,54.0347,303.6688,34.9561,325.1493,0,U,44793,999,4261,0,-.39E-6,0
BEIDOU-3 M21,2019-078B,2026-02-28T05:15:49.599648,1.86227562,.00056611,54.0076,303.6269,36.1333,323.9632,0,U,44794,999,4262,0,-.4E-6,0
ELEKTRO-L 3,2019-095A,2026-03-01T09:22:53.701248,1.00269982,.0001735,0.0290,280.2746,40.7600,54.8375,0,U,44903,999,2262,0,-.114E-5,0
GPS BIII-3,2020-041A,2026-03-01T06:42:43.721280,2.00560506,.0061323,56.6039,33.1302,205.2440,327.9609,0,U,45854,999,4187,0,-.67E-6,0
COSMOS 2547,2020-075A,2026-03-01T11:35:54.431232,2.13100066,.0006642,64.6000,196.0666,229.2536,130.6482,0,U,46805,999,4161,0,-.13E-6,0
GPS BIII-4,2020-078A,2026-02-28T19:35:04.984224,2.00565486,.00680489,54.0030,215.1712,204.2108,327.3641,0,U,46826,999,3933,0,.3E-7,0
GSAT0223 (GALILEO 27),2021-116A,2026-02-17T00:57:26.434656,1.70475508,.00028659,57.2005,344.9238,278.1950,264.6358,0,U,49809,999,2613,0,-.78E-6,0
GSAT0224 (GALILEO 28),2021-116B,2026-02-23T21:29:03.517440,1.70475193,.00021827,57.1984,344.7369,291.9502,250.7131,0,U,49810,999,2627,0,-.88E-6,0
GOES 18,2022-021A,2026-03-01T12:30:28.323360,1.00270442,.000059,0.0223,74.2982,314.9670,180.6511,0,U,51850,999,551,0,.79E-6,0
COSMOS 2557 (706K),2022-075A,2026-03-01T04:17:55.250880,2.13101670,.0011822,64.3612,318.2927,283.1445,76.7771,0,U,52984,999,2841,0,-.49E-6,0
METEOSAT-12 (MTG-I1),2022-170C,2026-03-01T07:18:28.131264,1.00274095,.0001988,0.7416,28.6879,278.6270,321.0943,0,U,54743,999,1189,0,-.25E-6,0
METEOR-M2 3,2023-091A,2026-03-01T12:38:17.294784,14.24036671,.0004991,98.6233,117.6402,117.7704,242.3982,0,U,57166,999,13919,.31007E-4,.28E-6,0
COSMOS 2569 (703K),2023-114A,2026-03-01T07:46:58.285344,2.13103901,.0012874,65.2399,76.2569,291.4204,68.4967,0,U,57517,999,1996,0,.38E-6,0
METEOR-M2 4,2024-039A,2026-03-01T11:44:42.864000,14.22415614,.0007997,98.6890,21.2134,116.9921,243.2074,0,U,59051,999,10395,.33223E-4,.3E-6,0
GSAT0225 (GALILEO 29),2024-079A,2026-02-28T11:26:35.197728,1.70474768,.00025001,55.0470,104.1172,256.3085,211.1082,0,U,59598,999,1146,0,.8E-7,0
GSAT0227 (GALILEO 30),2024-079C,2026-03-01T01:43:30.970272,1.70474778,.00004154,55.0426,104.0995,85.7874,274.2997,0,U,59600,999,1152,0,.1E-6,0
GSAT0232 (GALILEO 32),2024-167A,2026-02-17T15:52:34.088160,1.70443939,.00036004,55.2225,224.5881,296.6314,116.1306,0,U,61182,999,826,0,.69E-6,0
GSAT0226 (GALILEO 31),2024-167B,2026-02-27T23:49:21.599904,1.70473900,.00016952,55.2198,224.3131,129.0505,235.5609,0,U,61183,999,899,0,.31E-6,0
GSAT0233 (GALILEO 33),2025-302A,2026-02-13T12:00:00.000000,1.70474578,.00030114,54.3935,105.2952,207.0582,359.4109,0,U,67160,999,2,0,-.8E-7,0
GSAT0234 (GALILEO 34),2025-302C,2026-02-13T12:00:00.000000,1.70475065,.00030814,54.3967,105.2938,266.8423,119.7309,0,U,67162,999,12,0,-.8E-7,0